SAR-LUPE 2              
1 31797U 07030A   26189.24111711  .00019263  00000+0  31059-3 0  9992
2 31797  98.1055 296.3380 0003773 209.4045 150.6994 15.52977448 60206
SAPPHIRE                
1 39088U 13009C   26189.14602500  .00000072  00000+0  40202-4 0  9995
2 39088  98.4271   8.1051 0011138 180.4646 179.6531 14.35246202699587
PRAETORIAN SDA_602      
1 65565U 25203A   26188.91609537  .00000073  00000+0  55402-4 0  9993
2 65565  81.3036 351.5736 0006863 134.5517 225.6200 13.83887600 41566
PRAETORIAN SDA_603      
1 65566U 25203B   26188.94476902  .00000123  00000+0  10001-3 0  9996
2 65566  81.3042 351.4692 0010519 132.5261 227.6785 13.83961884 41579
PRAETORIAN SDA_604      
1 65567U 25203C   26189.19458833  .00000067  00000+0  50695-4 0  9999
2 65567  81.3058 351.6826 0006351 137.4403 222.7246 13.83049755 41582
PRAETORIAN SDA_605      
1 65568U 25203D   26189.01036412  .00000058  00000+0  42458-4 0  9994
2 65568  81.3023 351.4977 0009137 130.6598 229.5354 13.83199711 41577
PRAETORIAN SDA_606      
1 65569U 25203E   26188.92320316  .00000063  00000+0  46914-4 0  9990
2 65569  81.3060 351.8138 0006966 132.8558 227.3184 13.83199719 41552
PRAETORIAN SDA_607      
1 65570U 25203F   26188.91649360  .00000126  00000+0  10346-3 0  9993
2 65570  81.3045 351.4476 0009760 132.2671 227.9315 13.83758195 41576
PRAETORIAN SDA_608      
1 65571U 25203G   26188.97164184  .00000064  00000+0  46742-4 0  9997
2 65571  81.3013 351.5634 0006839 137.0748 223.0943 13.83818984 41567
PRAETORIAN SDA_609      
1 65572U 25203H   26188.97066466  .00000202  00000+0  17051-3 0  9996
2 65572  81.3052 351.5437 0007707 132.0854 228.0959 13.84211385 41576
PRAETORIAN SDA_610      
1 65573U 25203J   26188.95211637  .00000043  00000+0  27627-4 0  9991
2 65573  81.3014 351.5413 0007607 136.4485 223.7273 13.83769281 41568
PRAETORIAN SDA_611      
1 65574U 25203K   26188.95979524 -.00000106  00000+0 -10711-3 0  9995
2 65574  81.3021 351.7144 0006412 140.3274 219.8352 13.83310904 41550
PRAETORIAN SDA_612      
1 65575U 25203L   26188.92348844  .00000143  00000+0  11582-3 0  9994
2 65575  81.3034 351.2833 0010145 132.6827 227.5187 13.85040362 41586
PRAETORIAN SDA_613      
1 65576U 25203M   26189.19177890  .00000067  00000+0  50527-4 0  9994
2 65576  81.3005 351.5131 0006585 130.9978 229.1749 13.82767266 41588
PRAETORIAN SDA_614      
1 65577U 25203N   26188.91658156  .00000009  00000+0 -26765-5 0  9998
2 65577  81.3011 351.3728 0008003 130.5764 229.6090 13.84778084 41588
PRAETORIAN SDA_615      
1 65578U 25203P   26188.97084226  .00000193  00000+0  16210-3 0  9991
2 65578  81.3026 351.2992 0009880 131.2784 228.9225 13.84438506 41585
PRAETORIAN SDA_616      
1 65579U 25203Q   26188.95962896  .00000135  00000+0  11201-3 0  9999
2 65579  81.3069 351.8735 0006301 138.6240 221.5394 13.83269699 41554
PRAETORIAN SDA_617      
1 65580U 25203R   26188.91066809  .00000058  00000+0  41849-4 0  9992
2 65580  81.3043 351.7481 0008292 130.8189 229.3687 13.83151583 41555
PRAETORIAN SDA_618      
1 65581U 25203S   26188.93707821  .00000113  00000+0  90784-4 0  9995
2 65581  81.3027 351.2606 0010674 134.8285 225.3741 13.84225226 41587
PRAETORIAN SDA_619      
1 65582U 25203T   26188.90998530  .00000122  00000+0  98930-4 0  9993
2 65582  81.3051 351.6075 0009096 131.9151 228.2782 13.83805689 42196
PRAETORIAN SDA_620      
1 65583U 25203U   26188.94198010  .00000134  00000+0  11096-3 0  9993
2 65583  81.3036 351.6043 0008512 129.0617 231.1298 13.83304507 41560
PRAETORIAN SDA_621      
1 65584U 25203V   26188.91181198  .00000078  00000+0  59367-4 0  9991
2 65584  81.3027 351.5396 0008335 126.2801 233.9127 13.83803604 41561
PRAETORIAN SDA_601      
1 65585U 25203W   26188.96426262  .00000154  00000+0  12970-3 0  9994
2 65585  81.3034 351.8110 0006714 149.3397 210.8152 13.83176576 41554
VICTUS HAZE PUMA        
1 69646U 26142A   26189.20514316  .00002554  00000+0  11808-3 0  9990
2 69646  97.4475  86.5894 0025188 291.9966  67.8594 15.20813868  2862
